NORAD_CAT_ID,OBJECT_NAME,OBJECT_TYPE,EPOCH,MEAN_MOTION,ECCENTRICITY,INCLINATION,RA_OF_ASC_NODE,ARG_OF_PERICENTER,MEAN_ANOMALY,BSTAR,MEAN_MOTION_DOT,MEAN_MOTION_DDOT,TLE_LINE0,TLE_LINE1,TLE_LINE2,SEMIMAJOR_AXIS,PERIOD,APOGEE,PERIGEE,DECAYED
55778.0,STARLINK-5816,PAYLOAD,2024-03-16 14:12:36,14.98329277,0.0002945,70.0,247.4943,261.2901,98.7925,-2.4727e-05,-3.88e-06,0.0,0 STARLINK-5816,1 55778U 23028AP  24076.59208827 -.00000388  00000-0 -24727-4 0  9994,2 55778  70.0000 247.4943 0002945 261.2901  98.7925 14.98329277 58224,6950.195,96.107,574.107,570.013,0.0
55778.0,STARLINK-5816,PAYLOAD,2024-03-16 20:37:08,14.98329216,0.0002913,69.9999,246.8214,262.2524,97.8304,-2.0433e-05,-3.37e-06,0.0,0 STARLINK-5816,1 55778U 23028AP  24076.85912841 -.00000337  00000-0 -20433-4 0  9995,2 55778  69.9999 246.8214 0002913 262.2524  97.8304 14.98329216 58267,6950.195,96.107,574.085,570.036,0.0
55778.0,STARLINK-5816,PAYLOAD,2024-03-17 12:38:29,14.98327306,0.0002961,69.9997,245.1388,264.559,95.5232,-3.9794e-06,-1.4e-06,0.0,0 STARLINK-5816,1 55778U 23028AP  24077.52672959 -.00000140  00000-0 -39794-5 0  9996,2 55778  69.9997 245.1388 0002961 264.5590  95.5232 14.98327306 58364,6950.201,96.107,574.124,570.008,0.0
55778.0,STARLINK-5816,PAYLOAD,2024-03-17 14:14:37,14.98327158,0.0002974,69.9997,244.9705,264.5337,95.5483,-4.9985e-06,-1.53e-06,0.0,0 STARLINK-5816,1 55778U 23028AP  24077.59348979 -.00000153  00000-0 -49985-5 0  9992,2 55778  69.9997 244.9705 0002974 264.5337  95.5483 14.98327158 58371,6950.202,96.107,574.134,570.0,0.0
55778.0,STARLINK-5816,PAYLOAD,2024-03-17 20:39:09,14.98327668,0.0002952,69.9999,244.2974,264.4232,95.659,6.1327e-07,-8.6e-07,0.0,0 STARLINK-5816,1 55778U 23028AP  24077.86052975 -.00000086  00000-0  61327-6 0  9999,2 55778  69.9999 244.2974 0002952 264.4232  95.6590 14.98327668 58414,6950.2,96.107,574.117,570.013,0.0
55778.0,STARLINK-5816,PAYLOAD,2024-03-18 12:40:30,14.98328033,0.0002957,69.9999,242.6141,265.2292,94.8529,2.0548e-05,1.52e-06,0.0,0 STARLINK-5816,1 55778U 23028AP  24078.52812968  .00000152  00000-0  20548-4 0  9990,2 55778  69.9999 242.6141 0002957 265.2292  94.8529 14.98328033 58513,6950.199,96.107,574.119,570.009,0.0
55778.0,STARLINK-5816,PAYLOAD,2024-03-18 20:41:10,14.98328482,0.0002952,70.0,241.7724,265.1753,94.9069,2.4908e-05,2.04e-06,0.0,0 STARLINK-5816,1 55778U 23028AP  24078.86192965  .00000204  00000-0  24908-4 0  9997,2 55778  70.0000 241.7724 0002952 265.1753  94.9069 14.98328482 58565,6950.198,96.107,574.114,570.011,0.0
55778.0,STARLINK-5816,PAYLOAD,2024-03-19 11:06:22,14.9833328,0.0003041,69.9999,240.2573,267.8355,92.2456,6.7907e-05,7.17e-06,0.0,0 STARLINK-5816,1 55778U 23028AP  24079.46276523  .00000717  00000-0  67907-4 0  9992,2 55778  69.9999 240.2573 0003041 267.8355  92.2456 14.98333280 58655,6950.183,96.107,574.161,569.934,0.0
55778.0,STARLINK-5816,PAYLOAD,2024-03-19 20:43:10,14.98337588,0.0002975,70.0,239.2472,267.4964,92.5855,0.00011227,1.247e-05,0.0,0 STARLINK-5816,1 55778U 23028AP  24079.86332007  .00001247  00000-0  11227-3 0  9998,2 55778  70.0000 239.2472 0002975 267.4964  92.5855 14.98337588 58712,6950.169,96.107,574.102,569.967,0.0
55778.0,STARLINK-5816,PAYLOAD,2024-03-20 09:32:16,14.98324481,0.0002637,70.001,237.9018,268.1932,91.8925,-1.0274e-05,-2.15e-06,0.0,0 STARLINK-5816,1 55778U 23028AP  24080.39741193 -.00000215  00000-0 -10274-4 0  9996,2 55778  70.0010 237.9018 0002637 268.1932  91.8925 14.98324481 58798,6950.21,96.107,573.908,570.242,0.0
55778.0,STARLINK-5816,PAYLOAD,2024-03-20 14:20:40,14.9832235,0.0002665,70.0008,237.3964,268.1779,91.9074,-3.6314e-05,-5.26e-06,0.0,0 STARLINK-5816,1 55778U 23028AP  24080.59769473 -.00000526  00000-0 -36314-4 0  9997,2 55778  70.0008 237.3964 0002665 268.1779  91.9074 14.98322350 58822,6950.217,96.107,573.934,570.229,0.0
55778.0,STARLINK-5816,PAYLOAD,2024-03-20 20:45:13,14.98322987,0.000266,70.0008,236.723,268.4197,91.6657,-2.8521e-05,-4.33e-06,0.0,0 STARLINK-5816,1 55778U 23028AP  24080.86473512 -.00000433  00000-0 -28521-4 0  9991,2 55778  70.0008 236.7230 0002660 268.4197  91.6657 14.98322987 58867,6950.215,96.107,573.928,570.231,0.0
55778.0,STARLINK-5816,PAYLOAD,2024-03-21 12:46:33,14.98333668,0.0003044,69.9999,235.0389,272.3472,87.7339,-4.5278e-05,-6.33e-06,0.0,0 STARLINK-5816,1 55778U 23028AP  24081.53232873 -.00000633  00000-0 -45278-4 0  9999,2 55778  69.9999 235.0389 0003044 272.3472  87.7339 14.98333668 58969,6950.182,96.107,574.162,569.931,0.0
55778.0,STARLINK-5816,PAYLOAD,2024-03-21 14:22:41,14.98332995,0.0002992,69.9999,234.8707,271.8238,88.2578,-3.0621e-05,-4.58e-06,0.0,0 STARLINK-5816,1 55778U 23028AP  24081.59908866 -.00000458  00000-0 -30621-4 0  9998,2 55778  69.9999 234.8707 0002992 271.8238  88.2578 14.98332995 58979,6950.184,96.107,574.128,569.969,0.0
55778.0,STARLINK-5816,PAYLOAD,2024-03-21 19:11:05,14.9833537,0.0002543,70.0008,234.3664,264.4945,95.5924,4.0041e-06,-4.5e-07,0.0,0 STARLINK-5816,1 55778U 23028AP  24081.79936562 -.00000045  00000-0  40041-5 0  9993,2 55778  70.0008 234.3664 0002543 264.4945  95.5924 14.98335370 59006,6950.176,96.107,573.809,570.274,0.0
55778.0,STARLINK-5816,PAYLOAD,2024-03-22 12:48:34,14.9832741,0.0002675,70.0005,232.5151,262.1737,97.9119,8.3277e-05,9.01e-06,0.0,0 STARLINK-5816,1 55778U 23028AP  24082.53372714  .00000901  00000-0  83277-4 0  9996,2 55778  70.0005 232.5151 0002675 262.1737  97.9119 14.98327410 59114,6950.201,96.107,573.925,570.207,0.0
55778.0,STARLINK-5816,PAYLOAD,2024-03-22 14:24:42,14.98327056,0.0002656,70.0006,232.3469,260.5073,99.5786,8.3435e-05,9.03e-06,0.0,0 STARLINK-5816,1 55778U 23028AP  24082.60048716  .00000903  00000-0  83435-4 0  9994,2 55778  70.0006 232.3469 0002656 260.5073  99.5786 14.98327056 59124,6950.202,96.107,573.913,570.221,0.0
55778.0,STARLINK-5816,PAYLOAD,2024-03-22 20:49:14,14.98328539,0.0002633,70.0008,231.6734,257.3811,102.7054,8.3429e-05,9.03e-06,0.0,0 STARLINK-5816,1 55778U 23028AP  24082.86752636  .00000903  00000-0  83429-4 0  9998,2 55778  70.0008 231.6734 0002633 257.3811 102.7054 14.98328539 59168,6950.197,96.107,573.892,570.232,0.0
55778.0,STARLINK-5816,PAYLOAD,2024-03-23 12:50:35,14.98308395,0.000267,70.0011,229.9899,248.5544,111.533,0.00033039,3.849e-05,0.0,0 STARLINK-5816,1 55778U 23028AP  24083.53513064  .00003849  00000-0  33039-3 0  9996,2 55778  70.0011 229.9899 0002670 248.5544 111.5330 14.98308395 59264,6950.26,96.108,573.98,570.269,0.0
55778.0,STARLINK-5816,PAYLOAD,2024-03-23 19:15:07,14.98313256,0.000264,70.0015,229.3174,247.0555,113.0326,0.00030888,3.593e-05,0.0,0 STARLINK-5816,1 55778U 23028AP  24083.80217082  .00003593  00000-0  30888-3 0  9992,2 55778  70.0015 229.3174 0002640 247.0555 113.0326 14.98313256 59300,6950.245,96.108,573.945,570.275,0.0
55778.0,STARLINK-5816,PAYLOAD,2024-03-24 03:15:47,14.98330888,0.000282,70.0006,228.4747,264.7281,95.3556,-9.4515e-06,-2.06e-06,0.0,0 STARLINK-5816,1 55778U 23028AP  24084.13596713 -.00000206  00000-0 -94515-5 0  9999,2 55778  70.0006 228.4747 0002820 264.7281  95.3556 14.98330888 59350,6950.19,96.107,574.015,570.095,0.0
55778.0,STARLINK-5816,PAYLOAD,2024-03-24 14:28:43,14.98333846,0.0002827,70.0006,227.2959,263.5235,96.5602,5.5508e-05,5.69e-06,0.0,0 STARLINK-5816,1 55778U 23028AP  24084.60328272  .00000569  00000-0  55508-4 0  9992,2 55778  70.0006 227.2959 0002827 263.5235  96.5602 14.98333846 59425,6950.181,96.107,574.011,570.081,0.0
55778.0,STARLINK-5816,PAYLOAD,2024-03-24 20:53:15,14.98343157,0.0002774,70.0009,226.6224,261.3097,98.7747,0.00015494,1.757e-05,0.0,0 STARLINK-5816,1 55778U 23028AP  24084.87031345  .00001757  00000-0  15494-3 0  9992,2 55778  70.0009 226.6224 0002774 261.3097  98.7747 14.98343157 59463,6950.152,96.106,573.945,570.089,0.0
55778.0,STARLINK-5816,PAYLOAD,2024-03-25 03:17:48,14.98333066,0.0001351,70.0021,225.9515,275.8137,84.2869,5.7856e-05,5.98e-06,0.0,0 STARLINK-5816,1 55778U 23028AP  24085.13736526  .00000598  00000-0  57856-4 0  9996,2 55778  70.0021 225.9515 0001351 275.8137  84.2869 14.98333066 59505,6950.183,96.107,572.987,571.109,0.0
55778.0,STARLINK-5816,PAYLOAD,2024-03-25 19:19:08,14.98333146,0.0003003,70.0006,224.267,273.4385,86.643,1.7783e-05,1.19e-06,0.0,0 STARLINK-5816,1 55778U 23028AP  24085.80496157  .00000119  00000-0  17783-4 0  9997,2 55778  70.0006 224.2670 0003003 273.4385  86.6430 14.98333146 59607,6950.183,96.107,574.135,569.961,0.0
55778.0,STARLINK-5816,PAYLOAD,2024-03-26 12:56:38,14.98320759,0.000272,70.0015,222.4168,273.2756,86.8091,-0.00015757,-1.972e-05,0.0,0 STARLINK-5816,1 55778U 23028AP  24086.53933628 -.00001972  00000-0 -15757-3 0  9995,2 55778  70.0015 222.4168 0002720 273.2756  86.8091 14.98320759 59717,6950.221,96.108,573.977,570.196,0.0
55778.0,STARLINK-5816,PAYLOAD,2024-03-26 14:32:46,14.98323353,0.0002618,70.0015,222.2489,273.7591,86.3268,-0.00020983,-2.595e-05,0.0,0 STARLINK-5816,1 55778U 23028AP  24086.60609645 -.00002595  00000-0 -20983-3 0  9991,2 55778  70.0015 222.2489 0002618 273.7591  86.3268 14.98323353 59724,6950.213,96.107,573.898,570.259,0.0
55778.0,STARLINK-5816,PAYLOAD,2024-03-26 19:21:09,14.98379408,0.0002157,70.0009,221.7426,252.8933,107.199,-0.0010941,-0.00013139,0.0,0 STARLINK-5816,1 55778U 23028AP  24086.80636039 -.00013139  00000-0 -10941-2 0  9998,2 55778  70.0009 221.7426 0002157 252.8933 107.1990 14.98379408 59757,6950.04,96.104,573.404,570.406,0.0
55778.0,STARLINK-5816,PAYLOAD,2024-03-27 01:45:42,14.98331035,0.0002851,70.0012,221.0698,272.3182,87.7651,-0.00016907,-2.11e-05,0.0,0 STARLINK-5816,1 55778U 23028AP  24087.07341197 -.00002110  00000-0 -16907-3 0  9992,2 55778  70.0012 221.0698 0002851 272.3182  87.7651 14.98331035 59794,6950.19,96.107,574.036,570.073,0.0
55778.0,STARLINK-5816,PAYLOAD,2024-03-27 14:34:47,14.98326173,0.0003082,70.0006,219.722,280.9284,79.1528,5.7989e-05,5.99e-06,0.0,0 STARLINK-5816,1 55778U 23028AP  24087.60749050  .00000599  00000-0  57989-4 0  9994,2 55778  70.0006 219.7220 0003082 280.9284  79.1528 14.98326173 59871,6950.205,96.107,574.212,569.928,0.0
